LEMUR-1                 
1 40044U 14033AL  26186.21396907  .00002824  00000+0  32803-3 0  9997
2 40044  97.7902 335.6207 0048609  20.7024 339.6146 14.85316181648149
LEMUR-2-GREENBERG       
1 42837U 17042N   26185.46590226  .00024909  00000+0  80942-3 0  9993
2 42837  97.3827   6.0171 0007279 305.7985  54.2579 15.31879629491039
LEMUR-2-ANDIS           
1 42838U 17042P   26185.25928255  .00033593  00000+0  97068-3 0  9994
2 42838  97.3685   6.0558 0007223 304.5319  55.5242 15.35550599491079
LEMUR-2-MONSON          
1 42839U 17042Q   26185.97058516  .00026672  00000+0  96004-3 0  9997
2 42839  97.4091   6.4648 0005185 292.4391  67.6299 15.28555048490886
LEMUR-2-FURIAUS         
1 42840U 17042R   26185.73310588  .00036173  00000+0  12101-2 0  9995
2 42840  97.3776   4.1987 0006868  10.1304 350.0075 15.30867625490898
LEMUR-2-PETERG          
1 42841U 17042S   26185.77546819  .00049530  00000+0  14666-2 0  9997
2 42841  97.3997  10.8423 0002819 271.4936  88.5984 15.34712984491139
LEMUR-2-DEMBITZ         
1 42842U 17042T   26185.75274329  .00033708  00000+0  11286-2 0  9995
2 42842  97.3827   7.2552 0005378 321.4252  38.6604 15.30862613491030
LEMUR-2-ZACHARY         
1 42845U 17042W   26185.80294224  .00099482  00000+0  16413-2 0  9998
2 42845  97.3587  17.8321 0002376 301.9276  58.1745 15.51927144491937
LEMUR-2-AMANDA-SVANTE   
1 48269U 21034B   26184.72218815  .00036457  00000+0  10612-2 0  9990
2 48269  97.5753 263.4542 0003868 168.8216 191.3113 15.35322296283594
LEMUR-2-SPECIAL-K       
1 48273U 21034F   26185.77232439  .00381670  00000+0  29528-2 0  9995
2 48273  97.5633 273.9758 0005614 222.1957 137.8874 15.70732789284443
LEMUR-2-EMBRIONOVIS     
1 56970U 23084AQ  26185.64091916  .00025842  00000+0  69115-3 0  9997
2 56970  97.6316 330.5169 0007641 248.0379 112.0053 15.38015741170363
LEMUR-2-DEVERILL-M-T    
1 57391U 23100F   26186.10076815  .00045721  00000+0  11163-2 0  9994
2 57391  99.4455 230.0436 0004918 341.2411  18.8647 15.40706658164006
LEMUR-2-BASS            
1 58259U 23174D   26186.16953492  .00029406  00000+0  65053-3 0  9990
2 58259  97.3843 271.1401 0008016 108.2263 251.9858 15.43739318148137
LEMUR-2-JK0903EM1407    
1 58336U 23174CJ  26186.19534682  .00041451  00000+0  67161-3 0  9991
2 58336  97.3920 277.1846 0004441  64.6529 295.5184 15.52668170148522
LEMUR-2-MJR092620       
1 58340U 23174CN  26186.16176460  .00031490  00000+0  65450-3 0  9990
2 58340  97.3972 276.5298 0006215  63.1184 297.0700 15.45583381148422
LEMUR-2-NIMBUS2000      
1 58899U 24022A   26186.07347341  .00037288  00000+0  90805-3 0  9993
2 58899  97.4091  36.3054 0009679  61.4495 298.7724 15.40789502135023
