{"fetched_at":"2026-07-05T17:36:12.600Z","source":"https://celestrak.org/NORAD/elements/gp.php?GROUP=spire&FORMAT=JSON","constellation":"spire","records":[{"OBJECT_NAME":"LEMUR-1","OBJECT_ID":"2014-033AL","EPOCH":"2026-07-05T05:08:06.927648","CLASSIFICATION_TYPE":"U","MEAN_MOTION":14.85316181,"ECCENTRICITY":0.00486093,"INCLINATION":97.7902,"RA_OF_ASC_NODE":335.6207,"ARG_OF_PERICENTER":20.7024,"MEAN_ANOMALY":339.6146,"EPHEMERIS_TYPE":0,"NORAD_CAT_ID":40044,"ELEMENT_SET_NO":999,"REV_AT_EPOCH":64814,"BSTAR":0.00032802666,"MEAN_MOTION_DOT":0.00002824,"MEAN_MOTION_DDOT":0},{"OBJECT_NAME":"LEMUR-2-GREENBERG","OBJECT_ID":"2017-042N","EPOCH":"2026-07-04T11:10:53.955264","CLASSIFICATION_TYPE":"U","MEAN_MOTION":15.31879629,"ECCENTRICITY":0.00072799,"INCLINATION":97.3827,"RA_OF_ASC_NODE":6.0171,"ARG_OF_PERICENTER":305.7985,"MEAN_ANOMALY":54.2579,"EPHEMERIS_TYPE":0,"NORAD_CAT_ID":42837,"ELEMENT_SET_NO":999,"REV_AT_EPOCH":49103,"BSTAR":0.0008094247,"MEAN_MOTION_DOT":0.00024909,"MEAN_MOTION_DDOT":0},{"OBJECT_NAME":"LEMUR-2-ANDIS","OBJECT_ID":"2017-042P","EPOCH":"2026-07-04T06:13:22.012320","CLASSIFICATION_TYPE":"U","MEAN_MOTION":15.35550599,"ECCENTRICITY":0.00072231,"INCLINATION":97.3685,"RA_OF_ASC_NODE":6.0558,"ARG_OF_PERICENTER":304.5319,"MEAN_ANOMALY":55.5242,"EPHEMERIS_TYPE":0,"NORAD_CAT_ID":42838,"ELEMENT_SET_NO":999,"REV_AT_EPOCH":49107,"BSTAR":0.00097068298,"MEAN_MOTION_DOT":0.00033593,"MEAN_MOTION_DDOT":0},{"OBJECT_NAME":"LEMUR-2-MONSON","OBJECT_ID":"2017-042Q","EPOCH":"2026-07-04T23:17:38.557824","CLASSIFICATION_TYPE":"U","MEAN_MOTION":15.28555048,"ECCENTRICITY":0.00051857,"INCLINATION":97.4091,"RA_OF_ASC_NODE":6.4648,"ARG_OF_PERICENTER":292.4391,"MEAN_ANOMALY":67.6299,"EPHEMERIS_TYPE":0,"NORAD_CAT_ID":42839,"ELEMENT_SET_NO":999,"REV_AT_EPOCH":49088,"BSTAR":0.00096004031,"MEAN_MOTION_DOT":0.00026672,"MEAN_MOTION_DDOT":0},{"OBJECT_NAME":"LEMUR-2-FURIAUS","OBJECT_ID":"2017-042R","EPOCH":"2026-07-04T17:35:40.348032","CLASSIFICATION_TYPE":"U","MEAN_MOTION":15.30867625,"ECCENTRICITY":0.00068683,"INCLINATION":97.3776,"RA_OF_ASC_NODE":4.1987,"ARG_OF_PERICENTER":10.1304,"MEAN_ANOMALY":350.0075,"EPHEMERIS_TYPE":0,"NORAD_CAT_ID":42840,"ELEMENT_SET_NO":999,"REV_AT_EPOCH":49089,"BSTAR":0.0012100533,"MEAN_MOTION_DOT":0.00036173,"MEAN_MOTION_DDOT":0},{"OBJECT_NAME":"LEMUR-2-PETERG","OBJECT_ID":"2017-042S","EPOCH":"2026-07-04T18:36:40.451616","CLASSIFICATION_TYPE":"U","MEAN_MOTION":15.34712984,"ECCENTRICITY":0.00028191,"INCLINATION":97.3997,"RA_OF_ASC_NODE":10.8423,"ARG_OF_PERICENTER":271.4936,"MEAN_ANOMALY":88.5984,"EPHEMERIS_TYPE":0,"NORAD_CAT_ID":42841,"ELEMENT_SET_NO":999,"REV_AT_EPOCH":49113,"BSTAR":0.0014665851,"MEAN_MOTION_DOT":0.0004953,"MEAN_MOTION_DDOT":0},{"OBJECT_NAME":"LEMUR-2-DEMBITZ","OBJECT_ID":"2017-042T","EPOCH":"2026-07-04T18:03:57.020256","CLASSIFICATION_TYPE":"U","MEAN_MOTION":15.30862613,"ECCENTRICITY":0.0005378,"INCLINATION":97.3827,"RA_OF_ASC_NODE":7.2552,"ARG_OF_PERICENTER":321.4252,"MEAN_ANOMALY":38.6604,"EPHEMERIS_TYPE":0,"NORAD_CAT_ID":42842,"ELEMENT_SET_NO":999,"REV_AT_EPOCH":49103,"BSTAR":0.0011286069,"MEAN_MOTION_DOT":0.00033708,"MEAN_MOTION_DDOT":0},{"OBJECT_NAME":"LEMUR-2-ZACHARY","OBJECT_ID":"2017-042W","EPOCH":"2026-07-04T19:16:14.209536","CLASSIFICATION_TYPE":"U","MEAN_MOTION":15.51927144,"ECCENTRICITY":0.00023762,"INCLINATION":97.3587,"RA_OF_ASC_NODE":17.8321,"ARG_OF_PERICENTER":301.9276,"MEAN_ANOMALY":58.1745,"EPHEMERIS_TYPE":0,"NORAD_CAT_ID":42845,"ELEMENT_SET_NO":999,"REV_AT_EPOCH":49193,"BSTAR":0.0016412738,"MEAN_MOTION_DOT":0.00099482,"MEAN_MOTION_DDOT":0},{"OBJECT_NAME":"LEMUR-2-AMANDA-SVANTE","OBJECT_ID":"2021-034B","EPOCH":"2026-07-03T17:19:57.056160","CLASSIFICATION_TYPE":"U","MEAN_MOTION":15.35322296,"ECCENTRICITY":0.00038687,"INCLINATION":97.5753,"RA_OF_ASC_NODE":263.4542,"ARG_OF_PERICENTER":168.8216,"MEAN_ANOMALY":191.3113,"EPHEMERIS_TYPE":0,"NORAD_CAT_ID":48269,"ELEMENT_SET_NO":999,"REV_AT_EPOCH":28359,"BSTAR":0.0010611829,"MEAN_MOTION_DOT":0.00036457,"MEAN_MOTION_DDOT":0},{"OBJECT_NAME":"LEMUR-2-SPECIAL-K","OBJECT_ID":"2021-034F","EPOCH":"2026-07-04T18:32:08.827296","CLASSIFICATION_TYPE":"U","MEAN_MOTION":15.70732789,"ECCENTRICITY":0.00056146,"INCLINATION":97.5633,"RA_OF_ASC_NODE":273.9758,"ARG_OF_PERICENTER":222.1957,"MEAN_ANOMALY":137.8874,"EPHEMERIS_TYPE":0,"NORAD_CAT_ID":48273,"ELEMENT_SET_NO":999,"REV_AT_EPOCH":28444,"BSTAR":0.0029527663,"MEAN_MOTION_DOT":0.0038167,"MEAN_MOTION_DDOT":0},{"OBJECT_NAME":"LEMUR-2-EMBRIONOVIS","OBJECT_ID":"2023-084AQ","EPOCH":"2026-07-04T15:22:55.415424","CLASSIFICATION_TYPE":"U","MEAN_MOTION":15.38015741,"ECCENTRICITY":0.00076417,"INCLINATION":97.6316,"RA_OF_ASC_NODE":330.5169,"ARG_OF_PERICENTER":248.0379,"MEAN_ANOMALY":112.0053,"EPHEMERIS_TYPE":0,"NORAD_CAT_ID":56970,"ELEMENT_SET_NO":999,"REV_AT_EPOCH":17036,"BSTAR":0.00069115305,"MEAN_MOTION_DOT":0.00025842,"MEAN_MOTION_DDOT":0},{"OBJECT_NAME":"LEMUR-2-DEVERILL-M-T","OBJECT_ID":"2023-100F","EPOCH":"2026-07-05T02:25:06.368160","CLASSIFICATION_TYPE":"U","MEAN_MOTION":15.40706658,"ECCENTRICITY":0.00049185,"INCLINATION":99.4455,"RA_OF_ASC_NODE":230.0436,"ARG_OF_PERICENTER":341.2411,"MEAN_ANOMALY":18.8647,"EPHEMERIS_TYPE":0,"NORAD_CAT_ID":57391,"ELEMENT_SET_NO":999,"REV_AT_EPOCH":16400,"BSTAR":0.0011163363,"MEAN_MOTION_DOT":0.00045721,"MEAN_MOTION_DDOT":0},{"OBJECT_NAME":"LEMUR-2-BASS","OBJECT_ID":"2023-174D","EPOCH":"2026-07-05T04:04:07.817088","CLASSIFICATION_TYPE":"U","MEAN_MOTION":15.43739318,"ECCENTRICITY":0.00080169,"INCLINATION":97.3843,"RA_OF_ASC_NODE":271.1401,"ARG_OF_PERICENTER":108.2263,"MEAN_ANOMALY":251.9858,"EPHEMERIS_TYPE":0,"NORAD_CAT_ID":58259,"ELEMENT_SET_NO":999,"REV_AT_EPOCH":14813,"BSTAR":0.00065052939,"MEAN_MOTION_DOT":0.00029406,"MEAN_MOTION_DDOT":0},{"OBJECT_NAME":"LEMUR-2-JK0903EM1407","OBJECT_ID":"2023-174CJ","EPOCH":"2026-07-05T04:41:17.965248","CLASSIFICATION_TYPE":"U","MEAN_MOTION":15.5266817,"ECCENTRICITY":0.00044416,"INCLINATION":97.392,"RA_OF_ASC_NODE":277.1846,"ARG_OF_PERICENTER":64.6529,"MEAN_ANOMALY":295.5184,"EPHEMERIS_TYPE":0,"NORAD_CAT_ID":58336,"ELEMENT_SET_NO":999,"REV_AT_EPOCH":14852,"BSTAR":0.00067161464,"MEAN_MOTION_DOT":0.00041451,"MEAN_MOTION_DDOT":0},{"OBJECT_NAME":"LEMUR-2-MJR092620","OBJECT_ID":"2023-174CN","EPOCH":"2026-07-05T03:52:56.461440","CLASSIFICATION_TYPE":"U","MEAN_MOTION":15.45583381,"ECCENTRICITY":0.00062151,"INCLINATION":97.3972,"RA_OF_ASC_NODE":276.5298,"ARG_OF_PERICENTER":63.1184,"MEAN_ANOMALY":297.07,"EPHEMERIS_TYPE":0,"NORAD_CAT_ID":58340,"ELEMENT_SET_NO":999,"REV_AT_EPOCH":14842,"BSTAR":0.00065450399,"MEAN_MOTION_DOT":0.0003149,"MEAN_MOTION_DDOT":0},{"OBJECT_NAME":"LEMUR-2-NIMBUS2000","OBJECT_ID":"2024-022A","EPOCH":"2026-07-05T01:45:48.102624","CLASSIFICATION_TYPE":"U","MEAN_MOTION":15.40789502,"ECCENTRICITY":0.00096793,"INCLINATION":97.4091,"RA_OF_ASC_NODE":36.3054,"ARG_OF_PERICENTER":61.4495,"MEAN_ANOMALY":298.7724,"EPHEMERIS_TYPE":0,"NORAD_CAT_ID":58899,"ELEMENT_SET_NO":999,"REV_AT_EPOCH":13502,"BSTAR":0.00090805458,"MEAN_MOTION_DOT":0.00037288,"MEAN_MOTION_DDOT":0}]}
